ONEWEB-0449             
1 51642U 22012W   22197.91667824 -.00032536  00000+0 -93536-1 0  9996
2 51642  87.8886 320.8424 0001492  90.9269 179.5051 13.10397617  1309
ONEWEB-0451             
1 51643U 22012X   22197.91667824 -.00054725  00000+0 -51867-2 0  9993
2 51643  87.1868 305.8415 0002792 109.0180 243.1497 14.93992035  1303
ONEWEB-0452             
1 51644U 22012Y   22197.91667824 -.00056104  00000+0 -53189-2 0  9996
2 51644  87.1862 305.8392 0001146  98.2190 212.9934 14.93991231  1301
ONEWEB-0455             
1 51645U 22012Z   22197.87129755  .00000230  00000+0  95474-4 0  9990
2 51645  87.5312 314.9805 0019394  96.2997 264.0403 14.22281070 22603
ONEWEB-0456             
1 51646U 22012AA  22197.91667824 -.00033671  00000+0 -96813-1 0  9992
2 51646  87.8850 320.8506 0003221  82.2163 144.0754 13.10393589  1305
ONEWEB-0457             
1 51647U 22012AB  22197.91667824 -.00031919  00000+0 -91697-1 0  9991
2 51647  87.8873 320.7245 0005875  89.0302 238.2235 13.10438206  1303
ONEWEB-0458             
1 51648U 22012AC  22197.91667824 -.00033482  00000+0 -96265-1 0  9995
2 51648  87.8878 320.8494 0002030 114.5468 119.0784 13.10397789  1308
ONEWEB-0461             
1 51649U 22012AD  22197.91667824 -.00055485  00000+0 -52596-2 0  9993
2 51649  87.2465 306.9073 0003243 116.3329 347.0019 14.93987944  1300
ONEWEB-0463             
1 51650U 22012AE  22197.91667824 -.00054296  00000+0 -51495-2 0  9991
2 51650  87.1872 305.8522 0001041  55.8162 325.2503 14.93966589  1304
ONEWEB-0464             
1 51651U 22012AF  22197.91667824 -.00033041  00000+0 -94986-1 0  9998
2 51651  87.8844 320.8383 0002198 115.6906 132.7337 13.10402024  1301
ONEWEB-0468             
1 51652U 22012AG  22197.91667824 -.00033878  00000+0 -97404-1 0  9995
2 51652  87.8843 320.8500 0001771 103.0186 116.0073 13.10399936  1308
ONEWEB-0473             
1 51653U 22012AH  22197.91667824 -.00032248  00000+0 -92708-1 0  9998
2 51653  87.8904 320.8449 0002041 115.5937 169.4679 13.10395666  1302
ONEWEB-0474             
1 51654U 22012AJ  22197.91667824 -.00031830  00000+0 -91496-1 0  9998
2 51654  87.8842 320.8444 0002377 113.1521 208.7544 13.10400088  1307
ONEWEB-0475             
1 51655U 22012AK  22197.91667824 -.00057719  00000+0 -54810-2 0  9993
2 51655  87.1926 305.9557 0001508  87.7796 181.7309 14.93934437  1309
